{
    "links": {
        "self": "http://www.neowsapp.com/rest/v1/neo/3829437?api_key=iIulBulltgU6a56xZRHN4H3l9WmuAYTsLGpBGhQ2"
    },
    "id": "3829437",
    "neo_reference_id": "3829437",
    "name": "(2018 RD6)",
    "designation": "2018 RD6",
    "nasa_jpl_url": "http://ssd.jpl.nasa.gov/sbdb.cgi?sstr=3829437",
    "absolute_magnitude_h": 27.8,
    "estimated_diameter": {
        "kilometers": {
            "estimated_diameter_min": 0.0073207399,
            "estimated_diameter_max": 0.016369672
        },
        "meters": {
            "estimated_diameter_min": 7.3207398935,
            "estimated_diameter_max": 16.3696720474
        },
        "miles": {
            "estimated_diameter_min": 0.0045488955,
            "estimated_diameter_max": 0.0101716395
        },
        "feet": {
            "estimated_diameter_min": 24.0181762721,
            "estimated_diameter_max": 53.70627484
        }
    },
    "is_potentially_hazardous_asteroid": false,
    "close_approach_data": [
        {
            "close_approach_date": "2018-09-04",
            "close_approach_date_full": "2018-Sep-04 20:18",
            "epoch_date_close_approach": 1536092280000,
            "relative_velocity": {
                "kilometers_per_second": "9.0798521396",
                "kilometers_per_hour": "32687.4677026588",
                "miles_per_hour": "20310.7212511326"
            },
            "miss_distance": {
                "astronomical": "0.0124097787",
                "lunar": "4.8274039143",
                "kilometers": "1856476.460691369",
                "miles": "1153560.9813401322"
            },
            "orbiting_body": "Earth"
        }
    ],
    "orbital_data": {
        "orbit_id": "1",
        "orbit_determination_date": "2018-09-14 13:42:02",
        "first_observation_date": "2018-09-12",
        "last_observation_date": "2018-09-14",
        "data_arc_in_days": 2,
        "observations_used": 13,
        "orbit_uncertainty": "9",
        "minimum_orbit_intersection": ".00933673",
        "jupiter_tisserand_invariant": "4.263",
        "epoch_osculation": "2458374.5",
        "eccentricity": ".4098366953452016",
        "semi_major_axis": "1.598303927158944",
        "inclination": "4.669697708598347",
        "ascending_node_longitude": "346.8065744743607",
        "orbital_period": "738.0528756471505",
        "perihelion_distance": ".9432603274948645",
        "perihelion_argument": "313.9130549248036",
        "aphelion_distance": "2.253347526823024",
        "perihelion_time": "2458332.733034821520",
        "mean_anomaly": "20.37266971024077",
        "mean_motion": ".4877699306900463",
        "equinox": "J2000",
        "orbit_class": {
            "orbit_class_type": "APO",
            "orbit_class_description": "Near-Earth asteroid orbits which cross the Earth’s orbit similar to that of 1862 Apollo",
            "orbit_class_range": "a (semi-major axis) > 1.0 AU; q (perihelion) < 1.017 AU"
        }
    },
    "is_sentry_object": false
}